IRIDIUM 112             
1 41925U 17003J   23257.79243258  .00000413  00000+0  14040-3 0  9990
2 41925  86.4011 148.9328 0002048  90.6205 269.5226 14.34216950349029
IRIDIUM 111             
1 41926U 17003K   23257.77974865  .00000172  00000+0  54350-4 0  9995
2 41926  86.4015 148.9867 0002373  79.6240 280.5223 14.34218456349000
IRIDIUM 113             
1 42803U 17039A   23257.89924939  .00000254  00000+0  83473-4 0  9998
2 42803  86.4016  22.6601 0002295  94.1338 266.0120 14.34216023326955
IRIDIUM 123             
1 42804U 17039B   23257.45234353  .00000166  00000+0  52312-4 0  9995
2 42804  86.3947  54.3519 0002387  97.8291 262.3175 14.34220068325657
IRIDIUM 120             
1 42805U 17039C   23257.89291268  .00000470  00000+0  16070-3 0  9990
2 42805  86.4006  22.5759 0002186  91.5184 268.6262 14.34219298326949
IRIDIUM 115             
1 42806U 17039D   23257.85375645 -.00001041  00000+0 -31528-3 0  9991
2 42806  86.4538  22.5786 0002379  86.2288 273.9185 14.43312239329114
IRIDIUM 118             
1 42807U 17039E   23257.83291247  .00000191  00000+0  61135-4 0  9996
2 42807  86.3947  54.1952 0002088  93.5892 266.5542 14.34219752325705
IRIDIUM 117             
1 42808U 17039F   23257.85192924  .00000105  00000+0  30599-4 0  9996
2 42808  86.3947  54.1539 0002177  91.8209 268.3236 14.34218794325737
